ORBCOMM FM103           
1 40091U 14040F   25164.07505773  .00000382  00000+0  11857-3 0  9992
2 40091  47.0068  37.2236 0002220 265.4648  94.5984 14.58166037580569
ORBCOMM FM114           
1 41179U 15081A   25163.82269023  .00000406  00000+0  12378-3 0  9999
2 41179  47.0038 307.4662 0002311 310.1974  49.8709 14.58207548503836
ORBCOMM FM119           
1 41180U 15081B   25164.49569964  .00000474  00000+0  13835-3 0  9996
2 41180  46.9991 213.5978 0000962 332.5601  27.5234 14.58141954505180
ORBCOMM FM105           
1 41181U 15081C   25164.48849032  .00000198  00000+0  10047-3 0  9998
2 41181  47.0003 218.2193 0002552 288.4628  71.5975 14.45220331500328
ORBCOMM FM110           
1 41182U 15081D   25164.49099524  .00000861  00000+0  22261-3 0  9991
2 41182  47.0036 303.7550 0001681 191.8358 168.2488 14.57932381503987
ORBCOMM FM118           
1 41183U 15081E   25163.77984811  .00000637  00000+0  17245-3 0  9991
2 41183  47.0051 307.4641 0003751 140.6405 219.4754 14.58425017503802
ORBCOMM FM112           
1 41184U 15081F   25163.58090094  .00000389  00000+0  12003-3 0  9993
2 41184  46.9979 217.0661 0001909 299.9836  60.0860 14.58170097504991
ORBCOMM FM113           
1 41185U 15081G   25163.55762237  .00000379  00000+0  11795-3 0  9992
2 41185  46.9996 217.4989 0001578 308.5155  51.5588 14.58177053505049
